STARLINK-31549          
1 59360U 24060N   26068.54255145  .00000187  00000+0  16322-4 0  9991
2 59360  43.0010 260.4047 0001334 282.4267  77.6435 15.27573190110046
YAOGAN-43 01G           
1 60464U 24148G   26068.44348481  .00010133  00000+0  35873-3 0  9993
2 60464  35.0006  62.0013 0007382 306.3543  53.6492 15.28332833 87004
